ONEWEB-0589             
1 54655U 22166P   26014.23056705  .00000094  00000+0  19661-3 0  9991
2 54655  87.9217 274.7002 0002421  78.2955 281.8450 13.21825768151208
ONEWEB-0590             
1 54656U 22166Q   26014.40650610 -.00000017  00000+0 -72630-4 0  9999
2 54656  87.9221 274.6427 0001662  91.5101 268.6223 13.21825422151210
ONEWEB-0591             
1 54657U 22166R   26014.11536398  .00000041  00000+0  66952-4 0  9999
2 54657  87.9220 274.7239 0001674  79.2783 280.8539 13.21828246151206
ONEWEB-0592             
1 54658U 22166S   26014.19434422 -.00000094  00000+0 -25924-3 0  9996
2 54658  87.9229 274.6740 0001659  77.9517 282.1803 13.21827399151099
ONEWEB-0593             
1 54659U 22166T   26014.21740012  .00000047  00000+0  83026-4 0  9999
2 54659  87.9218 274.6933 0001693  71.7776 288.3542 13.21825786151208
ONEWEB-0594             
1 54660U 22166U   26014.23713369  .00000015  00000+0  46292-5 0  9998
2 54660  87.9219 274.7073 0001507  76.4332 283.6970 13.21828555151223
ONEWEB-0595             
1 54661U 22166V   26014.21409910 -.00000181  00000+0 -47048-3 0  9995
2 54661  87.9216 274.6844 0001429  79.3814 280.7481 13.21826382151193
ONEWEB-0596             
1 54662U 22166W   26014.49055814  .00000040  00000+0  65501-4 0  9993
2 54662  87.9217 274.6467 0001580  79.5453 280.5859 13.21828238151239
